{
    "links": {
        "self": "http://www.neowsapp.com/rest/v1/neo/3653827?api_key=iIulBulltgU6a56xZRHN4H3l9WmuAYTsLGpBGhQ2"
    },
    "id": "3653827",
    "neo_reference_id": "3653827",
    "name": "(2013 WY)",
    "designation": "2013 WY",
    "nasa_jpl_url": "http://ssd.jpl.nasa.gov/sbdb.cgi?sstr=3653827",
    "absolute_magnitude_h": 26.3,
    "estimated_diameter": {
        "kilometers": {
            "estimated_diameter_min": 0.0146067964,
            "estimated_diameter_max": 0.0326617897
        },
        "meters": {
            "estimated_diameter_min": 14.6067964271,
            "estimated_diameter_max": 32.6617897446
        },
        "miles": {
            "estimated_diameter_min": 0.0090762397,
            "estimated_diameter_max": 0.020295089
        },
        "feet": {
            "estimated_diameter_min": 47.92256199,
            "estimated_diameter_max": 107.1581062656
        }
    },
    "is_potentially_hazardous_asteroid": false,
    "close_approach_data": [
        {
            "close_approach_date": "1985-10-02",
            "close_approach_date_full": "1985-Oct-02 08:54",
            "epoch_date_close_approach": 497091240000,
            "relative_velocity": {
                "kilometers_per_second": "15.8499548056",
                "kilometers_per_hour": "57059.8373002342",
                "miles_per_hour": "35454.7639046927"
            },
            "miss_distance": {
                "astronomical": "0.3771499579",
                "lunar": "146.7113336231",
                "kilometers": "56420830.372429673",
                "miles": "35058278.3194605674"
            },
            "orbiting_body": "Earth"
        },
        {
            "close_approach_date": "2013-11-25",
            "close_approach_date_full": "2013-Nov-25 02:23",
            "epoch_date_close_approach": 1385346180000,
            "relative_velocity": {
                "kilometers_per_second": "4.2891879922",
                "kilometers_per_hour": "15441.076771809",
                "miles_per_hour": "9594.4846196832"
            },
            "miss_distance": {
                "astronomical": "0.0178826697",
                "lunar": "6.9563585133",
                "kilometers": "2675209.297033539",
                "miles": "1662297.9753952782"
            },
            "orbiting_body": "Earth"
        },
        {
            "close_approach_date": "2040-07-16",
            "close_approach_date_full": "2040-Jul-16 15:08",
            "epoch_date_close_approach": 2226064080000,
            "relative_velocity": {
                "kilometers_per_second": "9.3938393836",
                "kilometers_per_hour": "33817.8217809374",
                "miles_per_hour": "21013.0793171608"
            },
            "miss_distance": {
                "astronomical": "0.0540173773",
                "lunar": "21.0127597697",
                "kilometers": "8080884.587066351",
                "miles": "5021228.8449276038"
            },
            "orbiting_body": "Mars"
        },
        {
            "close_approach_date": "2042-06-01",
            "close_approach_date_full": "2042-Jun-01 04:06",
            "epoch_date_close_approach": 2285208360000,
            "relative_velocity": {
                "kilometers_per_second": "8.5153603726",
                "kilometers_per_hour": "30655.2973414376",
                "miles_per_hour": "19048.0096175171"
            },
            "miss_distance": {
                "astronomical": "0.0085338341",
                "lunar": "3.3196614649",
                "kilometers": "1276643.404293367",
                "miles": "793269.4270357846"
            },
            "orbiting_body": "Mars"
        },
        {
            "close_approach_date": "2044-04-16",
            "close_approach_date_full": "2044-Apr-16 07:23",
            "epoch_date_close_approach": 2344404180000,
            "relative_velocity": {
                "kilometers_per_second": "7.6031918943",
                "kilometers_per_hour": "27371.4908193732",
                "miles_per_hour": "17007.5799482933"
            },
            "miss_distance": {
                "astronomical": "0.0675949817",
                "lunar": "26.2944478813",
                "kilometers": "10112065.285008979",
                "miles": "6283346.0054787502"
            },
            "orbiting_body": "Mars"
        }
    ],
    "orbital_data": {
        "orbit_id": "10",
        "orbit_determination_date": "2017-04-06 08:43:35",
        "first_observation_date": "2013-11-26",
        "last_observation_date": "2013-12-06",
        "data_arc_in_days": 10,
        "observations_used": 39,
        "orbit_uncertainty": "7",
        "minimum_orbit_intersection": ".0184554",
        "jupiter_tisserand_invariant": "4.440",
        "epoch_osculation": "2459000.5",
        "eccentricity": ".3388264383068589",
        "semi_major_axis": "1.519886753000826",
        "inclination": "1.232939187560454",
        "ascending_node_longitude": "63.08286385002701",
        "orbital_period": "684.4083060926321",
        "perihelion_distance": "1.004908937851779",
        "perihelion_argument": "2.018823875691432",
        "aphelion_distance": "2.034864568149872",
        "perihelion_time": "2458676.821210758209",
        "mean_anomaly": "170.2556253185998",
        "mean_motion": ".5260017986270251",
        "equinox": "J2000",
        "orbit_class": {
            "orbit_class_type": "APO",
            "orbit_class_description": "Near-Earth asteroid orbits which cross the Earth’s orbit similar to that of 1862 Apollo",
            "orbit_class_range": "a (semi-major axis) > 1.0 AU; q (perihelion) < 1.017 AU"
        }
    },
    "is_sentry_object": false
}